{
  "norad_id": 67511,
  "name": "STARLINK-36540",
  "history": [
    {
      "epoch": "2026-03-28T16:28:23.587104Z",
      "apogee_km": 483.4025683207392,
      "perigee_km": 482.53806879860167,
      "latitude_deg": 5.4687005363041574e-05,
      "longitude_deg": 134.2376118144958,
      "height_km": 482.68696537911273,
      "semi_major_axis_km": 6861.107318559671,
      "eccentricity": 6.3e-05,
      "inclination_deg": 43.0064,
      "raan_deg": 207.4391,
      "arg_perigee_deg": 277.9901,
      "mean_anomaly_deg": 82.088,
      "mean_motion_rev_day": 15.27606309
    }
  ]
}